STARLINK-30455
1 57942U 23148H   25333.14378051  .00002077  00000+0  82252-4 0  9998
2 57942  53.1561 131.5116 0001260  93.0479 267.0666 15.30196165123027